NORAD_CAT_ID,OBJECT_NAME,OBJECT_TYPE,EPOCH,MEAN_MOTION,ECCENTRICITY,INCLINATION,RA_OF_ASC_NODE,ARG_OF_PERICENTER,MEAN_ANOMALY,BSTAR,MEAN_MOTION_DOT,MEAN_MOTION_DDOT,TLE_LINE0,TLE_LINE1,TLE_LINE2,SEMIMAJOR_AXIS,PERIOD,APOGEE,PERIGEE,DECAYED
54100.0,STARLINK-5185,PAYLOAD,2023-10-18 17:57:28,15.08845231,0.0001611,53.2175,292.6188,94.1413,265.9763,0.00042822,6.535e-05,0.0,0 STARLINK-5185,1 54100U 22136BB  23291.74824782  .00006535  00000-0  42822-3 0  9993,2 54100  53.2175 292.6188 0001611  94.1413 265.9763 15.08845231 55670,6917.864,95.437,540.844,538.615,0.0
54100.0,STARLINK-5185,PAYLOAD,2023-10-19 09:51:19,15.0885273,0.000176,53.2182,289.6439,99.2103,260.9088,0.00033321,5.021e-05,0.0,0 STARLINK-5185,1 54100U 22136BB  23292.41064443  .00005021  00000-0  33321-3 0  9991,2 54100  53.2182 289.6439 0001760  99.2103 260.9088 15.08852730 55307,6917.841,95.437,540.924,538.489,0.0
54100.0,STARLINK-5185,PAYLOAD,2023-10-20 04:55:57,15.08840579,0.0001728,53.2177,286.0767,98.3322,261.7866,9.5873e-05,1.238e-05,0.0,0 STARLINK-5185,1 54100U 22136BB  23293.20552912  .00001238  00000-0  95873-4 0  9999,2 54100  53.2177 286.0767 0001728  98.3322 261.7866 15.08840579 55898,6917.879,95.438,540.939,538.548,0.0
54100.0,STARLINK-5185,PAYLOAD,2023-10-20 22:25:12,15.08834481,0.0001759,53.2179,282.8069,95.724,264.3953,3.66e-05,2.94e-06,0.0,0 STARLINK-5185,1 54100U 22136BB  23293.93417444  .00000294  00000-0  36600-4 0  9993,2 54100  53.2179 282.8069 0001759  95.7240 264.3953 15.08834481 55535,6917.897,95.438,540.979,538.545,0.0
54100.0,STARLINK-5185,PAYLOAD,2023-10-21 03:11:22,15.08834666,0.000181,53.2177,281.9134,103.84,256.2793,2.2816e-05,7.5e-07,0.0,0 STARLINK-5185,1 54100U 22136BB  23294.13289568  .00000075  00000-0  22816-4 0  9991,2 54100  53.2177 281.9134 0001810 103.8400 256.2793 15.08834666 56036,6917.897,95.438,541.014,538.51,0.0
54100.0,STARLINK-5185,PAYLOAD,2023-10-21 06:22:08,15.08839274,0.0001501,53.2173,281.3196,94.9189,265.1975,2.2872e-05,7.6e-07,0.0,0 STARLINK-5185,1 54100U 22136BB  23294.26537325  .00000076  00000-0  22872-4 0  9995,2 54100  53.2173 281.3196 0001501  94.9189 265.1975 15.08839274 55585,6917.883,95.438,540.786,538.709,0.0
54100.0,STARLINK-5185,PAYLOAD,2023-10-21 15:54:26,15.0884362,0.000151,53.2176,279.5355,95.6384,264.478,9.8353e-05,1.278e-05,0.0,0 STARLINK-5185,1 54100U 22136BB  23294.66281139  .00001278  00000-0  98353-4 0  9990,2 54100  53.2176 279.5355 0001510  95.6384 264.4780 15.08843620 56115,6917.869,95.437,540.779,538.69,0.0
54100.0,STARLINK-5185,PAYLOAD,2023-10-22 06:12:54,15.08854202,0.0001482,53.2179,276.86,93.9094,266.2068,0.00041099,6.261e-05,0.0,0 STARLINK-5185,1 54100U 22136BB  23295.25896880  .00006261  00000-0  41099-3 0  9992,2 54100  53.2179 276.8600 0001482  93.9094 266.2068 15.08854202 55732,6917.837,95.437,540.727,538.677,0.0
54100.0,STARLINK-5185,PAYLOAD,2023-10-22 15:45:13,15.08844414,0.0001592,53.2174,275.0774,100.7705,259.3467,0.00013,1.782e-05,0.0,0 STARLINK-5185,1 54100U 22136BB  23295.65641141  .00001782  00000-0  13000-3 0  9998,2 54100  53.2174 275.0774 0001592 100.7705 259.3467 15.08844414 55794,6917.867,95.437,540.833,538.631,0.0
54100.0,STARLINK-5185,PAYLOAD,2023-10-23 04:28:19,15.08834117,0.0001694,53.2178,272.6959,98.9871,261.1313,-8.3698e-05,-1.62e-05,0.0,0 STARLINK-5185,1 54100U 22136BB  23296.18633578 -.00001620  00000-0 -83698-4 0  9996,2 54100  53.2178 272.6959 0001694  98.9871 261.1313 15.08834117 56343,6917.898,95.438,540.935,538.591,0.0
54100.0,STARLINK-5185,PAYLOAD,2023-10-23 06:03:42,15.0883298,0.0001825,53.2182,272.3997,95.3819,264.7381,-0.00012746,-2.316e-05,0.0,0 STARLINK-5185,1 54100U 22136BB  23296.25257705 -.00002316  00000-0 -12746-3 0  9996,2 54100  53.2182 272.3997 0001825  95.3819 264.7381 15.08832980 55884,6917.902,95.438,541.029,538.504,0.0
54100.0,STARLINK-5185,PAYLOAD,2023-10-24 04:19:06,15.08845139,0.0001652,53.2176,268.2373,104.3653,255.7523,0.0001534,2.155e-05,0.0,0 STARLINK-5185,1 54100U 22136BB  23297.17993482  .00002155  00000-0  15340-3 0  9999,2 54100  53.2176 268.2373 0001652 104.3653 255.7523 15.08845139 56490,6917.865,95.437,540.873,538.587,0.0
54100.0,STARLINK-5185,PAYLOAD,2023-10-24 07:29:52,15.08847244,0.00016,53.2172,267.6418,104.1557,255.9613,0.00039034,5.931e-05,0.0,0 STARLINK-5185,1 54100U 22136BB  23297.31241536  .00005931  00000-0  39034-3 0  9992,2 54100  53.2172 267.6418 0001600 104.1557 255.9613 15.08847244 56045,6917.858,95.437,540.83,538.616,0.0
54100.0,STARLINK-5185,PAYLOAD,2023-10-25 07:20:40,15.08839495,0.0001613,53.2172,263.1784,106.1776,253.9393,0.00019209,2.77e-05,0.0,0 STARLINK-5185,1 54100U 22136BB  23298.30602144  .00002770  00000-0  19209-3 0  9998,2 54100  53.2172 263.1784 0001613 106.1776 253.9393 15.08839495 56661,6917.882,95.438,540.863,538.631,0.0
54100.0,STARLINK-5185,PAYLOAD,2023-10-26 04:00:40,15.08858139,0.0001547,53.2174,259.3135,104.2798,255.8366,0.00047244,7.243e-05,0.0,0 STARLINK-5185,1 54100U 22136BB  23299.16713524  .00007243  00000-0  47244-3 0  9998,2 54100  53.2174 259.3135 0001547 104.2798 255.8366 15.08858139 56790,6917.825,95.436,540.76,538.62,0.0
54100.0,STARLINK-5185,PAYLOAD,2023-10-26 07:11:26,15.08856141,0.0001604,53.2174,258.7178,106.274,253.8428,0.00043514,6.647e-05,0.0,0 STARLINK-5185,1 54100U 22136BB  23299.29961632  .00006647  00000-0  43514-3 0  9990,2 54100  53.2174 258.7178 0001604 106.2740 253.8428 15.08856141 56342,6917.831,95.437,540.806,538.586,0.0
54100.0,STARLINK-5185,PAYLOAD,2023-10-26 21:29:55,15.08846355,0.0001469,53.2177,256.0421,108.3773,251.7378,0.00032581,4.902e-05,0.0,0 STARLINK-5185,1 54100U 22136BB  23299.89577951  .00004902  00000-0  32581-3 0  9997,2 54100  53.2177 256.0421 0001469 108.3773 251.7378 15.08846355 56432,6917.861,95.437,540.742,538.71,0.0
54100.0,STARLINK-5185,PAYLOAD,2023-10-27 03:51:27,15.08862214,0.0001439,53.2172,254.8528,99.845,260.2704,0.00058841,9.095e-05,0.0,0 STARLINK-5185,1 54100U 22136BB  23300.16073386  .00009095  00000-0  58841-3 0  9998,2 54100  53.2172 254.8528 0001439  99.8450 260.2704 15.08862214 56940,6917.812,95.436,540.673,538.682,0.0
54100.0,STARLINK-5185,PAYLOAD,2023-10-27 21:20:42,15.08844119,0.0001428,53.2171,251.5812,113.06,247.0543,5.2698e-05,5.51e-06,0.0,0 STARLINK-5185,1 54100U 22136BB  23300.88937565  .00000551  00000-0  52698-4 0  9998,2 54100  53.2171 251.5812 0001428 113.0600 247.0543 15.08844119 57054,6917.868,95.437,540.721,538.745,0.0
54100.0,STARLINK-5185,PAYLOAD,2023-10-28 13:14:33,15.08842537,0.0001261,53.2169,248.6071,106.4612,253.6519,0.00028314,4.221e-05,0.0,0 STARLINK-5185,1 54100U 22136BB  23301.55177688  .00004221  00000-0  28314-3 0  9990,2 54100  53.2169 248.6071 0001261 106.4612 253.6519 15.08842537 56685,6917.873,95.437,540.61,538.865,0.0
54100.0,STARLINK-5185,PAYLOAD,2023-10-29 03:33:01,15.08844811,0.0001464,53.2174,245.936,102.9286,257.1869,0.00013251,1.822e-05,0.0,0 STARLINK-5185,1 54100U 22136BB  23302.14793841  .00001822  00000-0  13251-3 0  9999,2 54100  53.2174 245.9360 0001464 102.9286 257.1869 15.08844811 57242,6917.866,95.437,540.743,538.718,0.0
54100.0,STARLINK-5185,PAYLOAD,2023-10-29 13:05:20,15.08843016,0.0001425,53.2177,244.1482,87.3355,272.7801,0.00015689,2.21e-05,0.0,0 STARLINK-5185,1 54100U 22136BB  23302.54537780  .00002210  00000-0  15689-3 0  9990,2 54100  53.2177 244.1482 0001425  87.3355 272.7801 15.08843016 56830,6917.871,95.437,540.722,538.75,0.0
54100.0,STARLINK-5185,PAYLOAD,2023-10-30 04:59:12,15.08838286,0.0001784,53.219,241.175,93.0342,267.0855,0.00011506,1.543e-05,0.0,0 STARLINK-5185,1 54100U 22136BB  23303.20778539  .00001543  00000-0  11506-3 0  9995,2 54100  53.2190 241.1750 0001784  93.0342 267.0855 15.08838286 57401,6917.886,95.438,540.985,538.516,0.0
54100.0,STARLINK-5185,PAYLOAD,2023-10-30 12:56:08,15.0883718,0.0001873,53.2193,239.6878,84.5966,275.524,8.3353e-05,1.039e-05,0.0,0 STARLINK-5185,1 54100U 22136BB  23303.53898676  .00001039  00000-0  83353-4 0  9996,2 54100  53.2193 239.6878 0001873  84.5966 275.5240 15.08837180 56989,6917.889,95.438,541.05,538.458,0.0
54100.0,STARLINK-5185,PAYLOAD,2023-10-31 12:46:55,15.08842884,0.0001721,53.2187,235.2313,90.3796,269.7393,0.00010744,1.422e-05,0.0,0 STARLINK-5185,1 54100U 22136BB  23304.53258826  .00001422  00000-0  10744-3 0  9993,2 54100  53.2187 235.2313 0001721  90.3796 269.7393 15.08842884 57607,6917.872,95.437,540.927,538.546,0.0
54100.0,STARLINK-5185,PAYLOAD,2023-11-01 12:37:42,15.08842915,0.0001885,53.2202,230.768,80.5434,279.5771,0.00012695,1.733e-05,0.0,0 STARLINK-5185,1 54100U 22136BB  23305.52618925  .00001733  00000-0  12695-3 0  9995,2 54100  53.2202 230.7680 0001885  80.5434 279.5771 15.08842915 57281,6917.871,95.437,541.04,538.432,0.0
54100.0,STARLINK-5185,PAYLOAD,2023-11-01 18:59:15,15.08838848,0.000188,53.2182,229.5804,80.503,279.6175,0.0001208,1.635e-05,0.0,0 STARLINK-5185,1 54100U 22136BB  23305.79115178  .00001635  00000-0  12080-3 0  9995,2 54100  53.2182 229.5804 0001880  80.5030 279.6175 15.08838848 57794,6917.884,95.438,541.049,538.448,0.0
54100.0,STARLINK-5185,PAYLOAD,2023-11-02 04:31:33,15.08849731,0.0001512,53.2185,227.7936,93.6301,266.4864,0.00018053,2.587e-05,0.0,0 STARLINK-5185,1 54100U 22136BB  23306.18858397  .00002587  00000-0  18053-3 0  9999,2 54100  53.2185 227.7936 0001512  93.6301 266.4864 15.08849731 57850,6917.851,95.437,540.762,538.67,0.0
54100.0,STARLINK-5185,PAYLOAD,2023-11-02 12:28:29,15.08842612,0.0001311,53.2186,226.3088,92.9795,267.1347,7.7368e-05,9.44e-06,0.0,0 STARLINK-5185,1 54100U 22136BB  23306.51978662  .00000944  00000-0  77368-4 0  9994,2 54100  53.2186 226.3088 0001311  92.9795 267.1347 15.08842612 57901,6917.872,95.437,540.644,538.83,0.0
54100.0,STARLINK-5185,PAYLOAD,2023-11-02 22:00:48,15.0884409,0.0001363,53.2189,224.5242,94.8238,265.291,7.1445e-05,8.49e-06,0.0,0 STARLINK-5185,1 54100U 22136BB  23306.91722550  .00000849  00000-0  71445-4 0  9995,2 54100  53.2189 224.5242 0001363  94.8238 265.2910 15.08844090 57497,6917.868,95.437,540.676,538.79,0.0
